GSAT0221 (GALILEO 25)   
1 43564U 18060A   22242.96444417 -.00000066  00000+0  00000+0 0  9999
2 43564  57.2012  19.1716 0002247 245.8293 114.1501  1.70476036 25536
GSAT0222 (GALILEO 26)   
1 43565U 18060B   22243.18431681 -.00000066  00000+0  00000+0 0  9994
2 43565  57.2035  19.1662 0001652 256.0686 103.9163  1.70475958 25588
GSAT0219 (GALILEO 23)   
1 43566U 18060C   22243.40486063 -.00000066  00000+0  00000+0 0  9994
2 43566  57.2025  19.1621 0001294 250.3555 109.6342  1.70476003 25569
GSAT0220 (GALILEO 24)   
1 43567U 18060D   22241.86526294 -.00000067  00000+0  00000+0 0  9995
2 43567  57.2038  19.2048 0001631 242.4314 117.5529  1.70475870 25520
BEIDOU-3 M13            
1 43622U 18072A   22243.39146868  .00000015  00000+0  00000+0 0  9997
2 43622  55.5209 108.8368 0005490 296.4681 243.3538  1.86231877 26844
BEIDOU-3 M14            
1 43623U 18072B   22244.31608691  .00000009  00000+0  00000+0 0  9991
2 43623  55.5236 108.7987 0004096 331.3852 198.5901  1.86231891 26864
GPS BIII-1              
1 43873U 18109A   22243.70955700  .00000021  00000+0  00000+0 0  9991
2 43873  55.1004 146.9252 0019994 190.2706 352.1423  2.00553559 27281
METEOR-M2 2             
1 44387U 19038A   22244.54462584 -.00000013  00000+0  13885-4 0  9992
2 44387  98.7291 204.7371 0002345  66.4098 293.7316 14.23718025164235
GPS BIII-2              
1 44506U 19056A   22243.82864178 -.00000057  00000+0  00000+0 0  9998
2 44506  55.7133  26.0545 0027625 179.4400 348.7774  2.00557985 22289
BEIDOU-3 M23            
1 44542U 19061A   22243.36900879  .00000073  00000+0  00000+0 0  9999
2 44542  54.5678 229.5669 0008790 327.3674  32.5640  1.86231425 19980
BEIDOU-3 M24            
1 44543U 19061B   22243.49823640  .00000074  00000+0  00000+0 0  9995
2 44543  54.5640 229.5319 0006468 308.4910  49.4871  1.86231784 19975
BEIDOU-3 M21            
1 44793U 19078A   22243.76932250 -.00000080  00000+0  10000-3 0  9991
2 44793  54.9450 348.0263 0005255  21.0362 351.7581  1.86232351 18856
BEIDOU-3 M22            
1 44794U 19078B   22243.89967764 -.00000080  00000+0  00000+0 0  9999
2 44794  54.9186 348.0115 0003266  19.7051 352.2806  1.86232788 18858
ELEKTRO-L 3             
1 44903U 19095A   22243.87509009 -.00000095  00000+0  00000+0 0  9998
2 44903   0.0527 315.8267 0001549 196.5035 218.7830  1.00271988  9819
GPS BIII-3              
1 45854U 20041A   22243.44998924  .00000002  00000+0  00000+0 0  9995
2 45854  55.5794  83.3365 0025589 176.9635  14.4130  2.00557699 16246
GPS BIII-4              
1 46826U 20078A   22243.44730437  .00000042  00000+0  00000+0 0  9992
2 46826  54.5210 267.0514 0022857 191.4008 335.0586  2.00565028 13706
GSAT0223 (GALILEO 27)   
1 49809U 21116A   22244.36302830 -.00000066  00000+0  00000+0 0  9991
2 49809  57.1965  19.0354 0003313 162.5439  20.4245  1.70475952  4569
GSAT0224 (GALILEO 28)   
1 49810U 21116B   22242.12050919 -.00000067  00000+0  00000+0 0  9994
2 49810  57.1965  19.0939 0002920 151.6921 207.4678  1.70476059  4553
